OBJECT_NAME,OBJECT_ID,EPOCH,MEAN_MOTION,ECCENTRICITY,INCLINATION,RA_OF_ASC_NODE,ARG_OF_PERICENTER,MEAN_ANOMALY,EPHEMERIS_TYPE,CLASSIFICATION_TYPE,NORAD_CAT_ID,ELEMENT_SET_NO,REV_AT_EPOCH,BSTAR,MEAN_MOTION_DOT,MEAN_MOTION_DDOT
COSMOS 2058,1990-010A,2026-06-18T07:50:25.863936,15.12021963,.00090481,82.4687,308.2308,356.2184,3.8976,0,U,20465,999,95744,.19648659E-3,.3406E-4,0
SL-14 R/B,1990-010B,2026-06-18T02:41:22.623360,14.83646725,.00190132,82.5015,173.0763,333.1620,26.8609,0,U,20466,999,94337,.32095766E-4,.289E-5,0
SL-14 R/B,1990-018B,2026-06-18T07:03:26.137728,14.82216731,.00175042,82.5210,129.0730,118.3681,241.9301,0,U,20511,999,93748,.36611238E-4,.316E-5,0
HST,1990-037B,2026-06-18T02:54:27.573408,15.30755230,.00017668,28.4721,74.1921,152.2420,207.8270,0,U,20580,999,78871,.15694226E-3,.5032E-4,0
SL-16 R/B,1990-046B,2026-06-18T01:54:05.325984,14.15026904,.00132764,71.0000,87.0745,160.4414,199.7221,0,U,20625,999,86259,.66376094E-4,.81E-6,0
COSMOS 2084,1990-055A,2026-06-17T22:11:25.742400,15.06118682,.0005597,62.7899,353.5738,280.0812,79.9657,0,U,20663,999,95141,.12740364E-3,.1671E-4,0
SL-6 R/B(2),1990-055D,2026-06-17T15:32:41.491680,15.04004273,.00407376,62.7823,273.8094,5.2182,354.9333,0,U,20666,999,95322,.99619238E-4,.1199E-4,0
SL-8 R/B,1990-078B,2026-06-17T23:59:28.508928,14.92354797,.03506791,82.9019,160.9115,35.7366,326.6779,0,U,20775,999,82424,.60248705E-3,.21364E-3,0
SL-8 R/B,1991-006B,2026-06-17T22:29:30.136704,13.77505900,.00237218,82.9425,95.4758,112.5665,319.5487,0,U,21088,999,77787,.41881087E-4,.57E-6,0
OKEAN-3,1991-039A,2026-06-18T06:26:51.887904,15.05328984,.00139631,82.5162,239.3326,354.1046,6.0014,0,U,21397,999,88016,.16274152E-3,.2361E-4,0
COSMOS 2151,1991-042A,2026-06-18T06:14:34.834560,15.00440880,.00137917,82.4960,346.6453,80.8266,279.4518,0,U,21422,999,87827,.89818004E-4,.1159E-4,0
SL-14 R/B,1991-042B,2026-06-18T07:13:10.037568,14.81903087,.00154055,82.4927,125.8512,270.8043,89.1406,0,U,21423,999,86797,.35114823E-4,.301E-5,0
ERS-1,1991-050A,2026-06-18T04:58:41.550240,14.39517951,.00307051,98.7797,189.9304,263.7702,95.9987,0,U,21574,999,83019,.71856376E-4,.179E-5,0
ARIANE 40 R/B,1991-050F,2026-06-18T02:08:23.772192,14.42957556,.00042807,98.1875,217.4709,119.6541,240.5077,0,U,21610,999,83347,.76525569E-4,.214E-5,0
INTERCOSMOS 25,1991-086A,2026-06-18T04:26:04.051968,12.12196899,.14839851,82.6052,249.2062,260.2404,82.8523,0,U,21819,999,50886,.14815056E-3,.743E-5,0
SL-8 R/B,1992-008B,2026-06-18T03:27:28.156896,13.75977224,.00339001,82.9261,193.0761,211.9493,210.1666,0,U,21876,999,72323,.11827125E-3,.13E-5,0
SL-8 R/B,1992-020B,2026-06-18T03:43:35.022144,13.75548967,.00296645,82.9305,79.1384,19.9383,91.2442,0,U,21938,999,71494,.69123085E-4,.82E-6,0
USA 81,1992-023A,2026-06-18T04:23:29.583456,14.32398465,.00027539,85.0074,73.4328,83.7664,276.3842,0,U,21949,999,10917,.48506976E-4,.151E-5,0
COSMOS 2219,1992-076A,2026-06-18T02:38:42.168192,14.14099663,.00166418,71.0579,168.1421,42.6191,317.6219,0,U,22219,999,73257,.17766632E-3,.292E-5,0
SL-16 R/B,1992-076B,2026-06-17T21:15:36.338400,14.16872575,.00146802,71.0005,337.3093,297.7457,167.9919,0,U,22220,999,73602,.13796099E-3,.229E-5,0
COSMOS 2221,1992-080A,2026-06-18T03:24:25.101216,14.96535218,.00133489,82.5030,182.8499,208.8074,151.2413,0,U,22236,999,79581,.9581736E-4,.1117E-4,0
SL-16 R/B,1992-093B,2026-06-18T02:10:17.085792,14.15460787,.00039124,71.0196,153.4950,186.8506,173.2565,0,U,22285,999,72736,-.11841716E-3,-.279E-5,0
COSMOS 2228,1992-094A,2026-06-18T05:21:54.865152,14.97589702,.00168046,82.5174,141.0500,328.7006,31.3215,0,U,22286,999,79110,.13298265E-3,.1583E-4,0
SL-16 R/B,1993-016B,2026-06-17T23:59:57.950592,14.15314648,.00101625,71.0084,4.5000,182.3697,177.7380,0,U,22566,999,71636,.13872443E-3,.223E-5,0
COSMOS 2242,1993-024A,2026-06-18T01:11:40.665408,14.96905671,.00152876,82.5179,170.7176,333.2673,26.7760,0,U,22626,999,79540,.11236496E-3,.1318E-4,0
SL-16 R/B,1993-059B,2026-06-18T03:00:11.661408,14.17248227,.0015246,70.9887,159.3257,52.3363,307.9141,0,U,22803,999,69376,-.40421199E-4,-.13E-5,0
ARIANE 40 R/B,1993-061H,2026-06-18T04:23:30.403392,14.32908302,.00103777,98.4819,236.0193,353.1862,6.9180,0,U,22830,999,70849,.66469739E-4,.139E-5,0
COSMOS 2278,1994-023A,2026-06-17T21:12:07.341984,14.14398380,.00106232,71.0548,325.4675,242.3414,117.6631,0,U,23087,999,65897,.58811458E-4,.65E-6,0
SL-16 R/B,1994-023B,2026-06-18T02:19:36.556896,14.15025882,.00027069,70.9993,220.0208,186.0063,174.1028,0,U,23088,999,66029,.13713303E-3,.218E-5,0
SL-16 R/B,1994-074B,2026-06-18T02:16:27.732288,14.79503017,.00051771,97.6989,195.7779,249.5845,174.7737,0,U,23343,999,70209,.49225531E-4,.319E-5,0
