COSMOS 2058             
1 20465U 90010A   26169.32668824  .00003406  00000+0  19649-3 0  9994
2 20465  82.4687 308.2308 0009048 356.2184   3.8976 15.12021963957440
SL-14 R/B               
1 20466U 90010B   26169.11206740  .00000289  00000+0  32096-4 0  9995
2 20466  82.5015 173.0763 0019013 333.1620  26.8609 14.83646725943373
SL-14 R/B               
1 20511U 90018B   26169.29405252  .00000316  00000+0  36611-4 0  9990
2 20511  82.5210 129.0730 0017504 118.3681 241.9301 14.82216731937482
HST                     
1 20580U 90037B   26169.12115247  .00005032  00000+0  15694-3 0  9998
2 20580  28.4721  74.1921 0001766 152.2420 207.8270 15.30755230788719
SL-16 R/B               
1 20625U 90046B   26169.07922831  .00000081  00000+0  66376-4 0  9990
2 20625  71.0000  87.0745 0013276 160.4414 199.7221 14.15026904862598
COSMOS 2084             
1 20663U 90055A   26168.92460350  .00001671  00000+0  12740-3 0  9999
2 20663  62.7899 353.5738 0005597 280.0812  79.9657 15.06118682951412
SL-6 R/B(2)             
1 20666U 90055D   26168.64770245  .00001199  00000+0  99619-4 0  9994
2 20666  62.7823 273.8094 0040737   5.2182 354.9333 15.04004273953229
SL-8 R/B                
1 20775U 90078B   26168.99963552  .00021364  00000+0  60249-3 0  9995
2 20775  82.9019 160.9115 0350679  35.7366 326.6779 14.92354797824246
SL-8 R/B                
1 21088U 91006B   26168.93715436  .00000057  00000+0  41881-4 0  9993
2 21088  82.9425  95.4758 0023721 112.5665 319.5487 13.77505900777870
OKEAN-3                 
1 21397U 91039A   26169.26865611  .00002361  00000+0  16274-3 0  9997
2 21397  82.5162 239.3326 0013963 354.1046   6.0014 15.05328984880160
COSMOS 2151             
1 21422U 91042A   26169.26012540  .00001159  00000+0  89818-4 0  9994
2 21422  82.4960 346.6453 0013791  80.8266 279.4518 15.00440880878272
SL-14 R/B               
1 21423U 91042B   26169.30081062  .00000301  00000+0  35115-4 0  9994
2 21423  82.4927 125.8512 0015405 270.8043  89.1406 14.81903087867975
ERS-1                   
1 21574U 91050A   26169.20742535  .00000179  00000+0  71856-4 0  9993
2 21574  98.7797 189.9304 0030705 263.7702  95.9987 14.39517951830197
ARIANE 40 R/B           
1 21610U 91050F   26169.08916403  .00000214  00000+0  76526-4 0  9996
2 21610  98.1875 217.4709 0004280 119.6541 240.5077 14.42957556833479
INTERCOSMOS 25          
1 21819U 91086A   26169.18476912  .00000743  00000+0  14815-3 0  9992
2 21819  82.6052 249.2062 1483985 260.2404  82.8523 12.12196899508860
SL-8 R/B                
1 21876U 92008B   26169.14407589  .00000130  00000+0  11827-3 0  9990
2 21876  82.9261 193.0761 0033900 211.9493 210.1666 13.75977224723231
SL-8 R/B                
1 21938U 92020B   26169.15526646  .00000082  00000+0  69123-4 0  9999
2 21938  82.9305  79.1384 0029664  19.9383  91.2442 13.75548967714946
USA 81                  
1 21949U 92023A   26169.18298129  .00000151  00000+0  48507-4 0  9999
2 21949  85.0074  73.4328 0002753  83.7664 276.3842 14.32398465109174
COSMOS 2219             
1 22219U 92076A   26169.11021028  .00000292  00000+0  17767-3 0  9992
2 22219  71.0579 168.1421 0016641  42.6191 317.6219 14.14099663732577
SL-16 R/B               
1 22220U 92076B   26168.88583725  .00000229  00000+0  13796-3 0  9992
2 22220  71.0005 337.3093 0014680 297.7457 167.9919 14.16872575736027
COSMOS 2221             
1 22236U 92080A   26169.14195719  .00001117  00000+0  95817-4 0  9998
2 22236  82.5030 182.8499 0013348 208.8074 151.2413 14.96535218795815
SL-16 R/B               
1 22285U 92093B   26169.09047553 -.00000279  00000+0 -11842-3 0  9997
2 22285  71.0196 153.4950 0003912 186.8506 173.2565 14.15460787727368
COSMOS 2228             
1 22286U 92094A   26169.22355168  .00001583  00000+0  13298-3 0  9992
2 22286  82.5174 141.0500 0016804 328.7006  31.3215 14.97589702791100
SL-16 R/B               
1 22566U 93016B   26168.99997628  .00000223  00000+0  13872-3 0  9992
2 22566  71.0084   4.5000 0010162 182.3697 177.7380 14.15314648716361
COSMOS 2242             
1 22626U 93024A   26169.04977622  .00001318  00000+0  11236-3 0  9995
2 22626  82.5179 170.7176 0015287 333.2673  26.7760 14.96905671795402
SL-16 R/B               
1 22803U 93059B   26169.12513497 -.00000130  00000+0 -40421-4 0  9997
2 22803  70.9887 159.3257 0015246  52.3363 307.9141 14.17248227693762
ARIANE 40 R/B           
1 22830U 93061H   26169.18299078  .00000139  00000+0  66470-4 0  9991
2 22830  98.4819 236.0193 0010377 353.1862   6.9180 14.32908302708490
COSMOS 2278             
1 23087U 94023A   26168.88341831  .00000065  00000+0  58811-4 0  9994
2 23087  71.0548 325.4675 0010623 242.3414 117.6631 14.14398380658972
SL-16 R/B               
1 23088U 94023B   26169.09695089  .00000218  00000+0  13713-3 0  9997
2 23088  70.9993 220.0208 0002706 186.0063 174.1028 14.15025882660295
SL-16 R/B               
1 23343U 94074B   26169.09476542  .00000319  00000+0  49226-4 0  9999
2 23343  97.6989 195.7779 0005177 249.5845 174.7737 14.79503017702098
